DMSP 5D-3 F16 (USA 172) 
1 28054U 03048A   26201.63204425 -.00000069  00000+0 -12334-4 0  9994
2 28054  98.9896 225.6804 0007961  57.7175  49.6783 14.14484664174216
METEOSAT-9 (MSG-2)      
1 28912U 05049B   26201.19965310  .00000116  00000+0  00000+0 0  9991
2 28912   9.4343  53.8381 0002437 358.7484   2.9518  1.00274969  7336
DMSP 5D-3 F17 (USA 191) 
1 29522U 06050A   26201.54537375 -.00000021  00000+0  11616-4 0  9993
2 29522  98.7390 207.4344 0009417 326.8620  33.1962 14.14996354 17143
FENGYUN 3A              
1 32958U 08026A   26201.80885956  .00000035  00000+0  37299-4 0  9994
2 32958  98.6886 142.0143 0009454  37.1178 323.0651 14.19577262940173
EWS-G3 (GOES 14)        
1 35491U 09033A   26201.85623100 -.00000361  00000+0  00000+0 0  9992
2 35491   1.7744  82.6268 0002152  39.1437 246.6058  1.00095691  6925
DMSP 5D-3 F18 (USA 210) 
1 35951U 09057A   26201.87240365  .00000203  00000+0  12829-3 0  9999
2 35951  98.9061 182.5724 0011553 149.8835 210.3005 14.14914320864356
EWS-G2 (GOES 15)        
1 36411U 10008A   26201.82822549  .00000022  00000+0  00000+0 0  9997
2 36411   1.3683  82.4006 0005446  53.6582 163.9489  1.00269439 59970
COMS 1                  
1 36744U 10032A   26201.46408896 -.00000193  00000+0  00000+0 0  9998
2 36744   4.8887  74.9552 0011444  15.1250 316.3410  0.99166737 51418
FENGYUN 3B              
1 37214U 10059A   26201.91696831 -.00000052  00000+0 -35328-5 0  9990
2 37214  98.9600 248.0713 0023211  91.2726  81.4175 14.14848096812194
SUOMI NPP               
1 37849U 11061A   26201.82135182  .00000031  00000+0  35626-4 0  9990
2 37849  98.7956 142.4689 0001031 188.7147 171.4011 14.19523369763219
METEOSAT-10 (MSG-3)     
1 38552U 12035B   26201.83218765 -.00000010  00000+0  00000+0 0  9995
2 38552   4.7494  60.8541 0001426  18.3366 159.0425  1.00272616 51194
METOP-B                 
1 38771U 12049A   26201.83643289  .00000040  00000+0  38047-4 0  9995
2 38771  98.6485 252.6611 0001302 225.3307 134.7765 14.21447431718043
INSAT-3D                
1 39216U 13038B   26201.85779101 -.00000340  00000+0  00000+0 0  9991
2 39216   2.0111  82.1164 0001049  42.8014 252.0093  1.00273635 47417
FENGYUN 3C              
1 39260U 13052A   26201.89633668  .00000070  00000+0  56828-4 0  9990
2 39260  98.5004 174.2277 0013495 288.3033  71.6674 14.15761594663332
METEOR-M 2              
1 40069U 14037A   26201.86231334 -.00000209  00000+0 -76339-4 0  9999
2 40069  98.5142 176.4120 0004781 307.6251  52.4492 14.21469264624103
HIMAWARI-8              
1 40267U 14060A   26201.60739126 -.00000277  00000+0  00000+0 0  9990
2 40267   0.0153  53.1610 0001276 108.7255 135.8056  1.00270174 43096
FENGYUN 2G              
1 40367U 14090A   26200.64000413 -.00000309  00000+0  00000+0 0  9993
2 40367   5.7192  72.4242 0003943 173.6464  21.2039  1.00279249 42329
METEOSAT-11 (MSG-4)     
1 40732U 15034A   26201.83400766  .00000060  00000+0  00000+0 0  9998
2 40732   3.2825  70.8910 0002023 355.3658 181.8591  1.00273620  7556
ELEKTRO-L 2             
1 41105U 15074A   26201.82932766 -.00000122  00000+0  00000+0 0  9996
2 41105   6.7766  70.1096 0000803 228.6874 283.8681  1.00272327 38849
SENTINEL-3A             
1 41335U 16011A   26201.80875294  .00000026  00000+0  28646-4 0  9996
2 41335  98.6232 268.7066 0001312  88.8974 271.2357 14.26740716542853
INSAT-3DR               
1 41752U 16054A   26201.77559410 -.00000077  00000+0  00000+0 0  9997
2 41752   0.0836  89.1161 0010345 180.3820  22.2441  1.00271487 36159
HIMAWARI-9              
1 41836U 16064A   26201.60739126 -.00000276  00000+0  00000+0 0  9998
2 41836   0.0199 292.3424 0001703 228.4234 137.0075  1.00273013 35542
GOES 16                 
1 41866U 16071A   26201.66889941 -.00000092  00000+0  00000+0 0  9992
2 41866   0.4178  85.4539 0000652  74.1871 274.9004  1.00271666 35432
FENGYUN 4A              
1 41882U 16077A   26201.85666433 -.00000359  00000+0  00000+0 0  9992
2 41882   2.4062  79.9026 0008191 159.4586 131.3146  1.00265639 35266
CYGFM05                 
1 41884U 16078A   26201.76853295  .00017462  00000+0  22519-3 0  9994
2 41884  34.9574  37.9744 0005293  98.7009 261.4315 15.58032110533992
CYGFM04                 
1 41885U 16078B   26201.69388318  .00023318  00000+0  24495-3 0  9998
2 41885  34.9331   4.4017 0004277 149.0942 211.0036 15.63317465534248
CYGFM02                 
1 41886U 16078C   26201.69058209  .00028676  00000+0  26335-3 0  9999
2 41886  34.9411 357.9232 0005032 150.2375 209.8639 15.66648843534421
CYGFM01                 
1 41887U 16078D   26201.80611198  .00019896  00000+0  24942-3 0  9991
2 41887  34.9404  38.5009 0005150  91.0871 269.0444 15.58760852533957
CYGFM08                 
1 41888U 16078E   26201.76927770  .00022229  00000+0  24894-3 0  9993
2 41888  34.9439  17.3993 0005993 130.9549 229.1696 15.61678238534220
CYGFM07                 
1 41890U 16078G   26201.66228280  .00021192  00000+0  23649-3 0  9990
2 41890  34.9455   6.4248 0004713 148.0237 212.0775 15.61782712534239
CYGFM03                 
1 41891U 16078H   26201.69745316  .00021593  00000+0  24109-3 0  9995
2 41891  34.9410   8.1183 0004345 130.9389 229.1713 15.61770161534211
